{
  "centers": [{},
    {
      "center_id": 1,
      "name": "Shimoga PHC",
      "address": "M G Road",
      "pincode": "577201",
      "vaccine": "COVISHIELD"
},
{"center_id": 2,
      "name": "District Hostpital",
      "address": "45 M  Road",
      "pincode": "413608",
      "vaccine": "COVAXIN"},

      {"center_id": 3,
      "name": "District Hostpital",
      "address": "45 M  Road",
      "pincode": "413608",
      "vaccine": "COVISHIELD"},
      {"center_id": 4,
      "name": "District Hostpital",
      "address": "45 M  Road",
      "pincode": "413608",
      "vaccine": "COVISHIELD"},
      {"center_id": 5,
      "name": "District Hostpital",
      "address": "45 M  Road",
      "pincode": "413608",
      "vaccine": "COVISHIELD"},
      {"center_id": 6,
      "name": "District Hostpital",
      "address": "45 M  Road",
      "pincode": "413608",
      "vaccine": "COVISHIELD"},
      {"center_id": 7,
      "name": "District Hostpital",
      "address": "45 M  Road",
      "pincode": "413608",
      "vaccine": "COVISHIELD"},
      {"center_id": 8,
      "name": "District Hostpital",
      "address": "45 M  Road",
      "pincode": "413608",
      "vaccine": "COVISHIELD"},
      {"center_id": 9,
      "name": "District Hostpital",
      "address": "45 M  Road",
      "pincode": "413608",
      "vaccine": "COVISHIELD"},
      {"center_id": 10,
      "name": "District Hostpital",
      "address": "45 M  Road",
      "pincode": "413608",
      "vaccine": "COVISHIELD"},    {
      "center_id": 11,
      "name": "Banglore PHC",
      "address": "M G Road",
      "pincode": "577201",
      "vaccine": "COVISHIELD"
}]}